start=new Date('2022-12-08T00:00:00.000Z').valueOf();
sats=[{"FILE":"3684212","TLE_LINE2":"2 46702  53.0532 154.4155 0001521  68.0035 292.1116 15.06407854118366","ELEMENT_SET_NO":"999","RA_OF_ASC_NODE":"154.4155","OBJECT_NAME":"STARLINK-1802","DECAY_DATE":null,"SEMIMAJOR_AXIS":"6925.324","NORAD_CAT_ID":"46702","APOAPSIS":"548.243","MEAN_MOTION":"15.06407854","TIME_SYSTEM":"UTC","COUNTRY_CODE":"US","MEAN_ELEMENT_THEORY":"SGP4","EPOCH":"2022-12-07T18:22:51.959424","MEAN_MOTION_DOT":"0.00002338","BSTAR":"0.00017579000000","REV_AT_EPOCH":"11836","PERIAPSIS":"546.136","EPHEMERIS_TYPE":"0","GP_ID":"219737940","PERIOD":"95.592","RCS_SIZE":"LARGE","SITE":"AFETR","ECCENTRICITY":"0.00015210","CLASSIFICATION_TYPE":"U","OBJECT_ID":"2020-073AJ","MEAN_MOTION_DDOT":"0.0000000000000","TLE_LINE1":"1 46702U 20073AJ  22341.76587916  .00002338  00000-0  17579-3 0  9990","REF_FRAME":"TEME","LAUNCH_DATE":"2020-10-18","CENTER_NAME":"EARTH","INCLINATION":"53.0532","MEAN_ANOMALY":"292.1116","ARG_OF_PERICENTER":"68.0035","OBJECT_TYPE":"PAYLOAD"},{"GP_ID":"219738189","EPHEMERIS_TYPE":"0","PERIOD":"95.592","MEAN_MOTION_DOT":"0.00000867","EPOCH":"2022-12-07T19:07:59.865888","MEAN_ELEMENT_THEORY":"SGP4","PERIAPSIS":"546.016","REV_AT_EPOCH":"11808","BSTAR":"0.00007709900000","MEAN_MOTION":"15.06394794","APOAPSIS":"548.443","NORAD_CAT_ID":"46703","COUNTRY_CODE":"US","TIME_SYSTEM":"UTC","RA_OF_ASC_NODE":"174.2712","ELEMENT_SET_NO":"999","TLE_LINE2":"2 46703  53.0547 174.2712 0001752  64.6824 295.4346 15.06394794118084","FILE":"3684212","SEMIMAJOR_AXIS":"6925.365","DECAY_DATE":null,"OBJECT_NAME":"STARLINK-1803","OBJECT_TYPE":"PAYLOAD","ARG_OF_PERICENTER":"64.6824","MEAN_ANOMALY":"295.4346","INCLINATION":"53.0547","TLE_LINE1":"1 46703U 20073AK  22341.79722067  .00000867  00000-0  77099-4 0  9991","CENTER_NAME":"EARTH","LAUNCH_DATE":"2020-10-18","REF_FRAME":"TEME","SITE":"AFETR","RCS_SIZE":"LARGE","OBJECT_ID":"2020-073AK","MEAN_MOTION_DDOT":"0.0000000000000","CLASSIFICATION_TYPE":"U","ECCENTRICITY":"0.00017520"},{"OBJECT_NAME":"STARLINK-1804","DECAY_DATE":null,"SEMIMAJOR_AXIS":"6925.342","FILE":"3684212","TLE_LINE2":"2 46704  53.0549 154.3783 0001990  61.9515 298.1675 15.06402199118360","ELEMENT_SET_NO":"999","RA_OF_ASC_NODE":"154.3783","TIME_SYSTEM":"UTC","COUNTRY_CODE":"US","NORAD_CAT_ID":"46704","APOAPSIS":"548.585","MEAN_MOTION":"15.06402199","BSTAR":"0.00002804300000","REV_AT_EPOCH":"11836","PERIAPSIS":"545.829","MEAN_ELEMENT_THEORY":"SGP4","EPOCH":"2022-12-07T18:38:46.477248","MEAN_MOTION_DOT":"0.00000136","PERIOD":"95.592","EPHEMERIS_TYPE":"0","GP_ID":"219738440","ECCENTRICITY":"0.00019900","CLASSIFICATION_TYPE":"U","OBJECT_ID":"2020-073AL","MEAN_MOTION_DDOT":"0.0000000000000","RCS_SIZE":"LARGE","SITE":"AFETR","REF_FRAME":"TEME","LAUNCH_DATE":"2020-10-18","CENTER_NAME":"EARTH","TLE_LINE1":"1 46704U 20073AL  22341.77692682  .00000136  00000-0  28043-4 0  9993","INCLINATION":"53.0549","MEAN_ANOMALY":"298.1675","ARG_OF_PERICENTER":"61.9515","OBJECT_TYPE":"PAYLOAD"},{"TIME_SYSTEM":"UTC","COUNTRY_CODE":"US","NORAD_CAT_ID":"46705","APOAPSIS":"548.270","MEAN_MOTION":"15.06386896","DECAY_DATE":null,"OBJECT_NAME":"STARLINK-1805","SEMIMAJOR_AXIS":"6925.389","FILE":"3684212","TLE_LINE2":"2 46705  53.0550 189.0116 0001467  42.9765 317.1339 15.06386896117883","RA_OF_ASC_NODE":"189.0116","ELEMENT_SET_NO":"999","PERIOD":"95.593","EPHEMERIS_TYPE":"0","GP_ID":"219738689","BSTAR":"-0.00007599700000","REV_AT_EPOCH":"11788","PERIAPSIS":"546.238","MEAN_ELEMENT_THEORY":"SGP4","EPOCH":"2022-12-07T20:33:34.591968","MEAN_MOTION_DOT":"-0.00001413","REF_FRAME":"TEME","LAUNCH_DATE":"2020-10-18","CENTER_NAME":"EARTH","TLE_LINE1":"1 46705U 20073AM  22341.85665037 -.00001413  00000-0 -75997-4 0  9998","ECCENTRICITY":"0.00014670","CLASSIFICATION_TYPE":"U","OBJECT_ID":"2020-073AM","MEAN_MOTION_DDOT":"0.0000000000000","RCS_SIZE":"LARGE","SITE":"AFETR","MEAN_ANOMALY":"317.1339","ARG_OF_PERICENTER":"42.9765","OBJECT_TYPE":"PAYLOAD","INCLINATION":"53.0550"},{"EPHEMERIS_TYPE":"0","GP_ID":"219737440","PERIOD":"95.592","MEAN_ELEMENT_THEORY":"SGP4","EPOCH":"2022-12-07T19:55:45.262272","MEAN_MOTION_DOT":"0.00000388","BSTAR":"0.00004494200000","REV_AT_EPOCH":"11809","PERIAPSIS":"545.998","NORAD_CAT_ID":"46706","APOAPSIS":"548.458","MEAN_MOTION":"15.06395208","TIME_SYSTEM":"UTC","COUNTRY_CODE":"US","FILE":"3684212","TLE_LINE2":"2 46706  53.0528 174.1364 0001776  60.9673 299.1494 15.06395208118092","RA_OF_ASC_NODE":"174.1364","ELEMENT_SET_NO":"999","OBJECT_NAME":"STARLINK-1807","DECAY_DATE":null,"SEMIMAJOR_AXIS":"6925.363","MEAN_ANOMALY":"299.1494","ARG_OF_PERICENTER":"60.9673","OBJECT_TYPE":"PAYLOAD","INCLINATION":"53.0528","TLE_LINE1":"1 46706U 20073AN  22341.83038498  .00000388  00000-0  44942-4 0  9996","REF_FRAME":"TEME","LAUNCH_DATE":"2020-10-18","CENTER_NAME":"EARTH","RCS_SIZE":"LARGE","SITE":"AFETR","ECCENTRICITY":"0.00017760","CLASSIFICATION_TYPE":"U","MEAN_MOTION_DDOT":"0.0000000000000","OBJECT_ID":"2020-073AN"},{"CLASSIFICATION_TYPE":"U","ECCENTRICITY":"0.00014730","OBJECT_ID":"2020-073AP","MEAN_MOTION_DDOT":"0.0000000000000","RCS_SIZE":"LARGE","SITE":"AFETR","REF_FRAME":"TEME","CENTER_NAME":"EARTH","LAUNCH_DATE":"2020-10-18","TLE_LINE1":"1 46707U 20073AP  22341.75481687  .00001445  00000-0  11585-3 0  9991","INCLINATION":"53.0552","ARG_OF_PERICENTER":"99.1813","MEAN_ANOMALY":"260.9342","OBJECT_TYPE":"PAYLOAD","OBJECT_NAME":"STARLINK-1808","DECAY_DATE":null,"SEMIMAJOR_AXIS":"6925.344","FILE":"3684212","ELEMENT_SET_NO":"999","RA_OF_ASC_NODE":"154.4809","TLE_LINE2":"2 46707  53.0552 154.4809 0001473  99.1813 260.9342 15.06401554118369","COUNTRY_CODE":"US","TIME_SYSTEM":"UTC","APOAPSIS":"548.229","NORAD_CAT_ID":"46707","MEAN_MOTION":"15.06401554","BSTAR":"0.00011585000000","PERIAPSIS":"546.189","REV_AT_EPOCH":"11836","MEAN_ELEMENT_THEORY":"SGP4","MEAN_MOTION_DOT":"0.00001445","EPOCH":"2022-12-07T18:06:56.177568","PERIOD":"95.592","GP_ID":"219737690","EPHEMERIS_TYPE":"0"},{"INCLINATION":"53.0539","ARG_OF_PERICENTER":"67.2376","MEAN_ANOMALY":"292.8791","OBJECT_TYPE":"PAYLOAD","RCS_SIZE":"LARGE","SITE":"AFETR","CLASSIFICATION_TYPE":"U","ECCENTRICITY":"0.00016780","OBJECT_ID":"2020-073AR","MEAN_MOTION_DDOT":"0.0000000000000","TLE_LINE1":"1 46709U 20073AR  22341.30009077 -.00000524  00000-0 -16266-4 0  9994","REF_FRAME":"TEME","CENTER_NAME":"EARTH","LAUNCH_DATE":"2020-10-18","MEAN_ELEMENT_THEORY":"SGP4","MEAN_MOTION_DOT":"-0.00000524","EPOCH":"2022-12-07T07:12:07.842528","BSTAR":"-0.00001626600000","PERIAPSIS":"546.093","REV_AT_EPOCH":"11779","GP_ID":"219738941","EPHEMERIS_TYPE":"0","PERIOD":"95.593","FILE":"3684212","ELEMENT_SET_NO":"999","RA_OF_ASC_NODE":"191.6400","TLE_LINE2":"2 46709  53.0539 191.6400 0001678  67.2376 292.8791 15.06386453117791","DECAY_DATE":null,"OBJECT_NAME":"STARLINK-1810","SEMIMAJOR_AXIS":"6925.390","APOAPSIS":"548.417","NORAD_CAT_ID":"46709","MEAN_MOTION":"15.06386453","COUNTRY_CODE":"US","TIME_SYSTEM":"UTC"},{"BSTAR":"0.00019063000000","REV_AT_EPOCH":"11788","PERIAPSIS":"545.797","MEAN_ELEMENT_THEORY":"SGP4","EPOCH":"2022-12-07T20:22:56.834688","MEAN_MOTION_DOT":"0.00002560","PERIOD":"95.591","EPHEMERIS_TYPE":"0","GP_ID":"219739190","OBJECT_NAME":"STARLINK-1811","DECAY_DATE":null,"SEMIMAJOR_AXIS":"6925.316","FILE":"3684212","TLE_LINE2":"2 46710  53.0535 189.0530 0001998  63.9150 296.2044 15.06410672117882","ELEMENT_SET_NO":"999","RA_OF_ASC_NODE":"189.0530","TIME_SYSTEM":"UTC","COUNTRY_CODE":"US","NORAD_CAT_ID":"46710","APOAPSIS":"548.565","MEAN_MOTION":"15.06410672","INCLINATION":"53.0535","MEAN_ANOMALY":"296.2044","ARG_OF_PERICENTER":"63.9150","OBJECT_TYPE":"PAYLOAD","ECCENTRICITY":"0.00019980","CLASSIFICATION_TYPE":"U","MEAN_MOTION_DDOT":"0.0000000000000","OBJECT_ID":"2020-073AS","RCS_SIZE":"LARGE","SITE":"AFETR","REF_FRAME":"TEME","LAUNCH_DATE":"2020-10-18","CENTER_NAME":"EARTH","TLE_LINE1":"1 46710U 20073AS  22341.84926892  .00002560  00000-0  19063-3 0  9995"},{"TIME_SYSTEM":"UTC","COUNTRY_CODE":"US","NORAD_CAT_ID":"46711","APOAPSIS":"548.417","MEAN_MOTION":"15.06398545","OBJECT_NAME":"STARLINK-1813","DECAY_DATE":null,"SEMIMAJOR_AXIS":"6925.353","FILE":"3684212","TLE_LINE2":"2 46711  53.0534 174.1632 0001731  70.4614 289.6562 15.06398545118092","RA_OF_ASC_NODE":"174.1632","ELEMENT_SET_NO":"999","PERIOD":"95.592","EPHEMERIS_TYPE":"0","GP_ID":"219737941","BSTAR":"0.00004016700000","REV_AT_EPOCH":"11809","PERIAPSIS":"546.019","MEAN_ELEMENT_THEORY":"SGP4","EPOCH":"2022-12-07T19:45:08.522784","MEAN_MOTION_DOT":"0.00000317","REF_FRAME":"TEME","LAUNCH_DATE":"2020-10-18","CENTER_NAME":"EARTH","TLE_LINE1":"1 46711U 20073AT  22341.82301531  .00000317  00000-0  40167-4 0  9999","ECCENTRICITY":"0.00017310","CLASSIFICATION_TYPE":"U","MEAN_MOTION_DDOT":"0.0000000000000","OBJECT_ID":"2020-073AT","RCS_SIZE":"LARGE","SITE":"AFETR","MEAN_ANOMALY":"289.6562","ARG_OF_PERICENTER":"70.4614","OBJECT_TYPE":"PAYLOAD","INCLINATION":"53.0534"},{"PERIAPSIS":"545.999","REV_AT_EPOCH":"11808","BSTAR":"0.00018088000000","MEAN_MOTION_DOT":"0.00002415","EPOCH":"2022-12-07T19:13:19.398144","MEAN_ELEMENT_THEORY":"SGP4","PERIOD":"95.591","GP_ID":"219738190","EPHEMERIS_TYPE":"0","SEMIMAJOR_AXIS":"6925.309","DECAY_DATE":null,"OBJECT_NAME":"STARLINK-1814","RA_OF_ASC_NODE":"174.3884","ELEMENT_SET_NO":"999","TLE_LINE2":"2 46712  53.0561 174.3884 0001696  47.1570 312.9561 15.06413032118083","FILE":"3684212","COUNTRY_CODE":"US","TIME_SYSTEM":"UTC","MEAN_MOTION":"15.06413032","APOAPSIS":"548.348","NORAD_CAT_ID":"46712","INCLINATION":"53.0561","OBJECT_TYPE":"PAYLOAD","ARG_OF_PERICENTER":"47.1570","MEAN_ANOMALY":"312.9561","MEAN_MOTION_DDOT":"0.0000000000000","OBJECT_ID":"2020-073AU","CLASSIFICATION_TYPE":"U","ECCENTRICITY":"0.00016960","SITE":"AFETR","RCS_SIZE":"LARGE","CENTER_NAME":"EARTH","LAUNCH_DATE":"2020-10-18","REF_FRAME":"TEME","TLE_LINE1":"1 46712U 20073AU  22341.80091896  .00002415  00000-0  18088-3 0  9995"}];
